GSAT0102 (GALILEO-FM2)
1 37847U 11060B   25352.38762655 -.00000076  00000+0  00000+0 0  9998
2 37847  57.0522 346.6671 0005099 311.9548 220.8374  1.70476030 88043